{
    "links": {
        "self": "http://www.neowsapp.com/rest/v1/neo/3986771?api_key=iIulBulltgU6a56xZRHN4H3l9WmuAYTsLGpBGhQ2"
    },
    "id": "3986771",
    "neo_reference_id": "3986771",
    "name": "(2020 BT1)",
    "designation": "2020 BT1",
    "nasa_jpl_url": "http://ssd.jpl.nasa.gov/sbdb.cgi?sstr=3986771",
    "absolute_magnitude_h": 25.997,
    "estimated_diameter": {
        "kilometers": {
            "estimated_diameter_min": 0.016794032,
            "estimated_diameter_max": 0.0375525972
        },
        "meters": {
            "estimated_diameter_min": 16.7940320091,
            "estimated_diameter_max": 37.5525971886
        },
        "miles": {
            "estimated_diameter_min": 0.0104353245,
            "estimated_diameter_max": 0.0233340949
        },
        "feet": {
            "estimated_diameter_min": 55.0985319766,
            "estimated_diameter_max": 123.2040629602
        }
    },
    "is_potentially_hazardous_asteroid": false,
    "close_approach_data": [
        {
            "close_approach_date": "1920-04-27",
            "close_approach_date_full": "1920-Apr-27 12:59",
            "epoch_date_close_approach": -1567767660000,
            "relative_velocity": {
                "kilometers_per_second": "9.7089253609",
                "kilometers_per_hour": "34952.1312991258",
                "miles_per_hour": "21717.8951397263"
            },
            "miss_distance": {
                "astronomical": "0.0506968746",
                "lunar": "19.7210842194",
                "kilometers": "7584144.455817102",
                "miles": "4712568.8401239276"
            },
            "orbiting_body": "Mars"
        },
        {
            "close_approach_date": "2011-05-26",
            "close_approach_date_full": "2011-May-26 09:07",
            "epoch_date_close_approach": 1306400820000,
            "relative_velocity": {
                "kilometers_per_second": "8.9405230684",
                "kilometers_per_hour": "32185.8830463415",
                "miles_per_hour": "19999.056051767"
            },
            "miss_distance": {
                "astronomical": "0.0864559235",
                "lunar": "33.6313542415",
                "kilometers": "12933622.004482945",
                "miles": "8036580.052416841"
            },
            "orbiting_body": "Mars"
        },
        {
            "close_approach_date": "2016-03-29",
            "close_approach_date_full": "2016-Mar-29 11:21",
            "epoch_date_close_approach": 1459250460000,
            "relative_velocity": {
                "kilometers_per_second": "9.0832466296",
                "kilometers_per_hour": "32699.6878665299",
                "miles_per_hour": "20318.3143857335"
            },
            "miss_distance": {
                "astronomical": "0.0889836386",
                "lunar": "34.6146354154",
                "kilometers": "13311762.799409782",
                "miles": "8271545.8468757116"
            },
            "orbiting_body": "Mars"
        },
        {
            "close_approach_date": "2020-01-10",
            "close_approach_date_full": "2020-Jan-10 11:49",
            "epoch_date_close_approach": 1578656940000,
            "relative_velocity": {
                "kilometers_per_second": "3.5084592466",
                "kilometers_per_hour": "12630.4532876925",
                "miles_per_hour": "7848.0724886776"
            },
            "miss_distance": {
                "astronomical": "0.0769058031",
                "lunar": "29.9163574059",
                "kilometers": "11504944.334399397",
                "miles": "7148840.9132377986"
            },
            "orbiting_body": "Earth"
        }
    ],
    "orbital_data": {
        "orbit_id": "5",
        "orbit_determination_date": "2020-02-05 05:24:30",
        "first_observation_date": "2020-01-19",
        "last_observation_date": "2020-02-03",
        "data_arc_in_days": 15,
        "observations_used": 28,
        "orbit_uncertainty": "7",
        "minimum_orbit_intersection": ".0768325",
        "jupiter_tisserand_invariant": "4.238",
        "epoch_osculation": "2459000.5",
        "eccentricity": ".3508319348671826",
        "semi_major_axis": "1.631307935409495",
        "inclination": "1.727667955755303",
        "ascending_node_longitude": "85.14839184378448",
        "orbital_period": "761.0310040044109",
        "perihelion_distance": "1.058993016065592",
        "perihelion_argument": "25.81166773926918",
        "aphelion_distance": "2.203622854753397",
        "perihelion_time": "2458860.123710607162",
        "mean_anomaly": "66.40394926818081",
        "mean_motion": ".4730424885526917",
        "equinox": "J2000",
        "orbit_class": {
            "orbit_class_type": "AMO",
            "orbit_class_description": "Near-Earth asteroid orbits similar to that of 1221 Amor",
            "orbit_class_range": "1.017 AU < q (perihelion) < 1.3 AU"
        }
    },
    "is_sentry_object": false
}